EUTELSAT 16A            
1 37836U 11057A   26022.86504660  .00000118  00000+0  00000+0 0  9996
2 37836   0.0548  11.5325 0005245 291.5868 146.4710  1.00271512  5870
VIASAT-1                
1 37843U 11059A   26022.86332377  .00000000  00000+0  00000+0 0  9990
2 37843   0.0186  73.0595 0002180 227.9614  16.8716  1.00270742 45868
ASIASAT 7               
1 37933U 11069A   26022.88281337  .00000000  00000+0  00000+0 0  9992
2 37933   0.0140 250.2281 0001113   1.2237 294.0648  1.00275408 43404
BEIDOU-2 IGSO-5         
1 37948U 11073A   26022.66642142 -.00000106  00000+0  00000+0 0  9992
2 37948  47.9421 273.3510 0108845 221.7180 321.6234  1.00281846 51678
LUCH-5A                 
1 37951U 11074B   26022.46700023 -.00000039  00000+0  00000+0 0  9993
2 37951   8.3811  75.9770 0004889 211.8579 168.9634  1.00271276 51598
NIGCOMSAT 1R            
1 38014U 11077A   26022.87033329  .00000000  00000+0  00000+0 0  9997
2 38014   0.0134 182.8756 0002296 118.7197 176.4407  1.00273462 51501
WGS F4 (USA 233)        
1 38070U 12003A   26022.79141906 -.00000199  00000+0  00000+0 0  9991
2 38070   0.0156  85.0113 0001128 227.5201 182.8753  1.00270151 42693
SES-4                   
1 38087U 12007A   26022.85750655 -.00000154  00000+0  00000+0 0  9998
2 38087   0.0253  37.0468 0002400 265.5069 106.3283  1.00271955 50766
BEIDOU-2 G5             
1 38091U 12008A   26022.87353998  .00000071  00000+0  00000+0 0  9992
2 38091   3.2094  70.5473 0013931 240.3545 184.4948  1.00269787 50910
MUOS-1                  
1 38093U 12009A   26022.62802787 -.00000114  00000+0  00000+0 0  9992
2 38093   5.1782  47.2071 0053784 356.7335 204.1315  1.00272562 50981
INTELSAT 22 (IS-22)     
1 38098U 12011A   26022.84836699 -.00000044  00000+0  00000+0 0  9995
2 38098   0.0044   5.8599 0001677 301.8019 192.0176  1.00272377  5737
APSTAR-7                
1 38107U 12013A   26022.87709333 -.00000087  00000+0  00000+0 0  9992
2 38107   0.0135 108.2497 0002522 206.4978 199.7201  1.00271967 50353
YAHSAT 1B               
1 38245U 12016A   26022.84280932  .00000141  00000+0  00000+0 0  9994
2 38245   0.0666  90.8135 0003347 221.0038 161.3562  1.00268963 44154
AEHF-2 (USA 235)        
1 38254U 12019A   26022.85863323 -.00000122  00000+0  00000+0 0  9999
2 38254   6.3139  58.5543 0003617 238.5054 117.7861  1.00272124  5522
JCSAT-13                
1 38331U 12023A   26022.81512630 -.00000341  00000+0  00000+0 0  9991
2 38331   0.0162  65.8657 0001864 234.3454 239.3959  1.00270197 50080
VINASAT-2               
1 38332U 12023B   26022.74534800 -.00000314  00000+0  00000+0 0  9997
2 38332   0.0319 301.7768 0002678  17.3328 203.1270  1.00269685 45206
NIMIQ 6                 
1 38342U 12026A   26022.55852079 -.00000159  00000+0  00000+0 0  9998
2 38342   0.0497 255.4567 0002655  42.7424 293.6732  1.00271312 48952
ZHONGXING-2A            
1 38352U 12028A   26022.88134002 -.00000279  00000+0  00000+0 0  9999
2 38352   1.0771  86.0153 0001981 201.8562 249.8546  1.00274069 49847
INTELSAT 19 (IS-19)     
1 38356U 12030A   26022.82344634 -.00000042  00000+0  00000+0 0  9992
2 38356   0.0186  74.7431 0003095 235.0941 274.7634  1.00271372 48995
ECHOSTAR 17             
1 38551U 12035A   26022.62672786 -.00000060  00000+0  00000+0 0  9994
2 38551   0.0198  61.9815 0002078 236.9524 301.5464  1.00270169 49608
METEOSAT-10 (MSG-3)     
1 38552U 12035B   26022.86192657  .00000006  00000+0  00000+0 0  9994
2 38552   4.3257  61.6272 0001923 279.7698  91.1229  1.00269627 49407
SES-5                   
1 38652U 12036A   26022.86287992  .00000048  00000+0  00000+0 0  9999
2 38652   0.0594 297.8577 0001983   3.1293 136.8206  1.00269644 43003
INTELSAT 20 (IS-20)     
1 38740U 12043A   26022.85947387 -.00000009  00000+0  00000+0 0  9993
2 38740   0.0184  86.9286 0001586  67.0515 346.1068  1.00269234 49299
HYLAS 2                 
1 38741U 12043B   26022.56198748 -.00000244  00000+0  00000+0 0  9992
2 38741   2.0500  82.9366 0002537 231.1458 297.5616  1.00271681 49316
INTELSAT 21 (IS-21)     
1 38749U 12045A   26022.77907275 -.00000270  00000+0  00000+0 0  9997
2 38749   0.0174  77.8497 0001860 225.5620  41.1676  1.00272191 49061
ASTRA 2F                
1 38778U 12051A   26022.87614395  .00000165  00000+0  00000+0 0  9997
2 38778   0.1020 258.7982 0003134 359.6262 207.4156  1.00274942 39683
GSAT-10                 
1 38779U 12051B   26022.80253189 -.00000149  00000+0  00000+0 0  9994
2 38779   0.0764 265.5335 0002143 195.4246  33.0717  1.00269997 48649
INTELSAT 23 (IS-23)     
1 38867U 12057A   26022.78002609  .00000000  00000+0  00000+0 0  9999
2 38867   0.0145 261.2771 0002231  39.4534  49.2056  1.00263016 48496
BEIDOU-2 G6             
1 38953U 12059A   26022.73590127 -.00000161  00000+0  00000+0 0  9998
2 38953   4.0510  75.0992 0009426 295.2175 100.6726  1.00269422 48453
LUCH-5B                 
1 38977U 12061A   26022.85863323 -.00000125  00000+0  00000+0 0  9991
2 38977  10.1676  51.3077 0005718 207.9490 155.7655  1.00271650 48156
YAMAL 300K              
1 38978U 12061B   26023.68268109  .00000086  00000+0  00000+0 0  9990
2 38978   0.0179  77.9691 0000476 217.7807 255.9857  1.00270569 48184
STAR ONE C3             
1 38991U 12062A   26022.84701983  .00000000  00000+0  00000+0 0  9991
2 38991   0.0162  61.9198 0002180 244.9785  45.2184  1.00270888 48308
EUTELSAT 21B            
1 38992U 12062B   26022.86617326  .00000145  00000+0  00000+0 0  9991
2 38992   0.0662  10.7774 0002945 292.7391 152.0763  1.00271535 48376
ECHOSTAR 16             
1 39008U 12065A   26022.56441416 -.00000267  00000+0  00000+0 0  9991
2 39008   0.0207  59.0921 0002103 242.6253 321.8759  1.00269958 48172
ZHONGXING-12            
1 39017U 12067A   26022.87926001 -.00000191  00000+0  00000+0 0  9991
2 39017   0.0151 106.2469 0003350 199.5704 220.4073  1.00270217 48058
EUTELSAT 70B            
1 39020U 12069A   26022.85392170 -.00000028  00000+0  00000+0 0  9998
2 39020   0.0618 357.7005 0003382 278.0772 224.3008  1.00271203 48059
YAMAL 402               
1 39022U 12070A   26023.81033367  .00000101  00000+0  00000+0 0  9990
2 39022   0.8928  86.2324 0004139 217.0539 166.4600  1.00270956 47952
SKYNET 5D               
1 39034U 12075A   26022.84280932  .00000113  00000+0  00000+0 0  9995
2 39034   0.0713 348.7837 0003859 310.6831 178.8970  1.00276273 47705
MEXSAT 3                
1 39035U 12075B   26022.62516785 -.00000011  00000+0  00000+0 0  9998
2 39035   0.0168 105.6335 0002019 174.0625 312.5281  1.00273327  5593
TDRS 11                 
1 39070U 13004A   26022.82734638  .00000094  00000+0  00000+0 0  9991
2 39070   3.3106  28.5671 0002937 339.0587 238.0281  1.00276383 45237
AMAZONAS 3              
1 39078U 13006A   26022.42184664 -.00000268  00000+0  00000+0 0  9999
2 39078   0.0610 246.1591 0003871  29.3866 297.0662  1.00270914 43459
AZERSPACE 1             
1 39079U 13006B   26022.84280932  .00000148  00000+0  00000+0 0  9997
2 39079   0.0531 263.2747 0002119  75.6576 132.6384  1.00271658 47355
SBIRS GEO-2 (USA 241)   
1 39120U 13011A   26022.85204652 -.00000273  00000+0  00000+0 0  9996
2 39120   4.1747  52.3262 0002289 251.6938  75.0934  1.00271180 47071
EUTELSAT 117 WEST A     
1 39122U 13012A   26022.62473451  .00000002  00000+0  00000+0 0  9998
2 39122   0.0098  36.7498 0002967 273.5434 279.7765  1.00272462 46978
ANIK G1                 
1 39127U 13014A   26022.62664119 -.00000059  00000+0  00000+0 0  9991
2 39127   0.0440 259.7923 0003364  33.2837 307.1733  1.00271461 46793
ZHONGXING-11            
1 39157U 13020A   26022.88125336 -.00000276  00000+0  00000+0 0  9993
2 39157   0.0260  61.7613 0002628 233.6610 241.9608  1.00271495 46445
EUTELSAT 7B             
1 39163U 13022A   26022.86331325  .00000063  00000+0  00000+0 0  9990
2 39163   0.0656 358.1923 0005575 335.3823 106.4037  1.00271796 46498
WGS F5 (USA 243)        
1 39168U 13024A   26022.85152652 -.00000270  00000+0  00000+0 0  9991
2 39168   0.0158  86.2674 0000345 344.4464 305.5153  1.00273668 45719
SES-6                   
1 39172U 13026A   26022.85386653 -.00000246  00000+0  00000+0 0  9991
2 39172   0.0516 277.8607 0002450  25.2674  85.9508  1.00271375 46269
IRNSS-1A                
1 39199U 13034A   26016.19955806  .00000064  00000+0  00000+0 0  9998
2 39199  35.3835  66.0531 0021026 207.1773 329.4329  1.00280803 45844
MUOS-2                  
1 39206U 13036A   26022.82465969  .00000001  00000+0  00000+0 0  9993
2 39206   4.7055  45.2365 0052567 182.2430   3.5301  1.00270441 45733
ALPHASAT                
1 39215U 13038A   26022.86677993  .00000148  00000+0  00000+0 0  9993
2 39215   2.9729   2.4974 0001843 298.4261 158.1882  1.00270332 42563
INSAT-3D                
1 39216U 13038B   26022.81625296 -.00000325  00000+0  00000+0 0  9996
2 39216   1.5491  84.5080 0001909 188.4084 272.5873  1.00273946 45623
WGS F6 (USA 244)        
1 39222U 13041A   26022.40719988  .00000104  00000+0  00000+0 0  9998
2 39222   0.0174  73.7517 0000225 268.0234 151.3830  1.00270965 44601
ES'HAIL 1               
1 39233U 13044A   26022.87614395  .00000158  00000+0  00000+0 0  9999
2 39233   0.0486  16.0816 0002275 289.0903 157.9459  1.00272459 45176
GSAT-7                  
1 39234U 13044B   26022.44862681 -.00000062  00000+0  00000+0 0  9991
2 39234   0.0355  91.2370 0007464 188.8884  77.1662  1.00271224 43795
AMOS-4                  
1 39237U 13045A   26022.85947387  .00000022  00000+0  00000+0 0  9992
2 39237   0.0231 223.5190 0002885  95.6476 177.4094  1.00271642 45503
AEHF-3 (USA 246)        
1 39256U 13050A   26022.76562812  .00000043  00000+0  00000+0 0  9998
2 39256   4.9340  68.5323 0093968 186.3796  18.5429  1.00271180 44196
ASTRA 2E                
1 39285U 13056A   26022.87614395  .00000165  00000+0  00000+0 0  9997
2 39285   0.0706  39.1234 0002668 271.7592 155.2013  1.00271220 44964
